CCSDS_OMM_VERS = 2.0
CREATION_DATE  = 
ORIGINATOR     = 

OBJECT_NAME    = STARLINK-36937
OBJECT_ID      = 2026-044N
CENTER_NAME    = EARTH
REF_FRAME      = TEME
TIME_SYSTEM    = UTC
MEAN_ELEMENT_THEORY = SGP/SGP4

EPOCH          = 2026-03-15T06:00:00.999648
MEAN_MOTION    = 16.00408293
ECCENTRICITY   = .00015627
INCLINATION    = 97.2811
RA_OF_ASC_NODE = 34.5552
ARG_OF_PERICENTER = 120.6351
MEAN_ANOMALY   = 45.3270

EPHEMERIS_TYPE = 0
CLASSIFICATION_TYPE = U
NORAD_CAT_ID   = 68113
ELEMENT_SET_NO = 999
REV_AT_EPOCH   = 224
BSTAR          = -.34125894E-2
MEAN_MOTION_DOT = -.1753835E-1
MEAN_MOTION_DDOT = .93374921E-3

CCSDS_OMM_VERS = 2.0
CREATION_DATE  = 
ORIGINATOR     = 

OBJECT_NAME    = STARLINK-36229
OBJECT_ID      = 2026-044P
CENTER_NAME    = EARTH
REF_FRAME      = TEME
TIME_SYSTEM    = UTC
MEAN_ELEMENT_THEORY = SGP/SGP4

EPOCH          = 2026-03-15T06:00:00.999648
MEAN_MOTION    = 16.00282954
ECCENTRICITY   = .00015538
INCLINATION    = 97.2805
RA_OF_ASC_NODE = 34.5532
ARG_OF_PERICENTER = 118.2700
MEAN_ANOMALY   = 45.7014

EPHEMERIS_TYPE = 0
CLASSIFICATION_TYPE = U
NORAD_CAT_ID   = 68114
ELEMENT_SET_NO = 999
REV_AT_EPOCH   = 229
BSTAR          = -.34357971E-2
MEAN_MOTION_DOT = -.1753255E-1
MEAN_MOTION_DDOT = .93181891E-3

CCSDS_OMM_VERS = 2.0
CREATION_DATE  = 
ORIGINATOR     = 

OBJECT_NAME    = STARLINK-36392
OBJECT_ID      = 2026-044Q
CENTER_NAME    = EARTH
REF_FRAME      = TEME
TIME_SYSTEM    = UTC
MEAN_ELEMENT_THEORY = SGP/SGP4

EPOCH          = 2026-03-15T06:00:00.999648
MEAN_MOTION    = 16.00556093
ECCENTRICITY   = .0001645
INCLINATION    = 97.2807
RA_OF_ASC_NODE = 34.5556
ARG_OF_PERICENTER = 118.9061
MEAN_ANOMALY   = 49.5306

EPHEMERIS_TYPE = 0
CLASSIFICATION_TYPE = U
NORAD_CAT_ID   = 68115
ELEMENT_SET_NO = 999
REV_AT_EPOCH   = 229
BSTAR          = -.34009465E-2
MEAN_MOTION_DOT = -.1762517E-1
MEAN_MOTION_DDOT = .94406369E-3

CCSDS_OMM_VERS = 2.0
CREATION_DATE  = 
ORIGINATOR     = 

OBJECT_NAME    = STARLINK-36805
OBJECT_ID      = 2026-044R
CENTER_NAME    = EARTH
REF_FRAME      = TEME
TIME_SYSTEM    = UTC
MEAN_ELEMENT_THEORY = SGP/SGP4

EPOCH          = 2026-03-15T06:00:00.999648
MEAN_MOTION    = 16.00713889
ECCENTRICITY   = .00015699
INCLINATION    = 97.2805
RA_OF_ASC_NODE = 34.5566
ARG_OF_PERICENTER = 110.0407
MEAN_ANOMALY   = 61.1778

EPHEMERIS_TYPE = 0
CLASSIFICATION_TYPE = U
NORAD_CAT_ID   = 68116
ELEMENT_SET_NO = 999
REV_AT_EPOCH   = 229
BSTAR          = -.33885604E-2
MEAN_MOTION_DOT = -.1771813E-1
MEAN_MOTION_DDOT = .95519622E-3

CCSDS_OMM_VERS = 2.0
CREATION_DATE  = 
ORIGINATOR     = 

OBJECT_NAME    = STARLINK-36844
OBJECT_ID      = 2026-044S
CENTER_NAME    = EARTH
REF_FRAME      = TEME
TIME_SYSTEM    = UTC
MEAN_ELEMENT_THEORY = SGP/SGP4

EPOCH          = 2026-03-15T06:00:00.999648
MEAN_MOTION    = 16.00843906
ECCENTRICITY   = .00015999
INCLINATION    = 97.2803
RA_OF_ASC_NODE = 34.5572
ARG_OF_PERICENTER = 117.6885
MEAN_ANOMALY   = 55.5714

EPHEMERIS_TYPE = 0
CLASSIFICATION_TYPE = U
NORAD_CAT_ID   = 68117
ELEMENT_SET_NO = 999
REV_AT_EPOCH   = 224
BSTAR          = -.33605199E-2
MEAN_MOTION_DOT = -.1770259E-1
MEAN_MOTION_DDOT = .95506853E-3

CCSDS_OMM_VERS = 2.0
CREATION_DATE  = 
ORIGINATOR     = 

OBJECT_NAME    = STARLINK-36789
OBJECT_ID      = 2026-044T
CENTER_NAME    = EARTH
REF_FRAME      = TEME
TIME_SYSTEM    = UTC
MEAN_ELEMENT_THEORY = SGP/SGP4

EPOCH          = 2026-03-15T06:00:00.999648
MEAN_MOTION    = 16.01003254
ECCENTRICITY   = .00015363
INCLINATION    = 97.2803
RA_OF_ASC_NODE = 34.5594
ARG_OF_PERICENTER = 110.0234
MEAN_ANOMALY   = 67.9255

EPHEMERIS_TYPE = 0
CLASSIFICATION_TYPE = U
NORAD_CAT_ID   = 68118
ELEMENT_SET_NO = 999
REV_AT_EPOCH   = 224
BSTAR          = -.33743464E-2
MEAN_MOTION_DOT = -.179351E-1
MEAN_MOTION_DDOT = .98063605E-3

CCSDS_OMM_VERS = 2.0
CREATION_DATE  = 
ORIGINATOR     = 

OBJECT_NAME    = STARLINK-36850
OBJECT_ID      = 2026-044U
CENTER_NAME    = EARTH
REF_FRAME      = TEME
TIME_SYSTEM    = UTC
MEAN_ELEMENT_THEORY = SGP/SGP4

EPOCH          = 2026-03-15T06:00:00.999648
MEAN_MOTION    = 16.01134300
ECCENTRICITY   = .00015898
INCLINATION    = 97.2802
RA_OF_ASC_NODE = 34.5607
ARG_OF_PERICENTER = 114.4842
MEAN_ANOMALY   = 65.5830

EPHEMERIS_TYPE = 0
CLASSIFICATION_TYPE = U
NORAD_CAT_ID   = 68119
ELEMENT_SET_NO = 999
REV_AT_EPOCH   = 224
BSTAR          = -.33409326E-2
MEAN_MOTION_DOT = -.1789192E-1
MEAN_MOTION_DDOT = .97770043E-3

CCSDS_OMM_VERS = 2.0
CREATION_DATE  = 
ORIGINATOR     = 

OBJECT_NAME    = STARLINK-36868
OBJECT_ID      = 2026-044V
CENTER_NAME    = EARTH
REF_FRAME      = TEME
TIME_SYSTEM    = UTC
MEAN_ELEMENT_THEORY = SGP/SGP4

EPOCH          = 2026-03-15T06:00:00.999648
MEAN_MOTION    = 16.01291188
ECCENTRICITY   = .00015658
INCLINATION    = 97.2799
RA_OF_ASC_NODE = 34.5617
ARG_OF_PERICENTER = 110.7804
MEAN_ANOMALY   = 71.9921

EPHEMERIS_TYPE = 0
CLASSIFICATION_TYPE = U
NORAD_CAT_ID   = 68120
ELEMENT_SET_NO = 999
REV_AT_EPOCH   = 224
BSTAR          = -.33357326E-2
MEAN_MOTION_DOT = -.1802394E-1
MEAN_MOTION_DDOT = .99317333E-3

CCSDS_OMM_VERS = 2.0
CREATION_DATE  = 
ORIGINATOR     = 

OBJECT_NAME    = STARLINK-36855
OBJECT_ID      = 2026-044W
CENTER_NAME    = EARTH
REF_FRAME      = TEME
TIME_SYSTEM    = UTC
MEAN_ELEMENT_THEORY = SGP/SGP4

EPOCH          = 2026-03-15T06:00:00.999648
MEAN_MOTION    = 16.01437880
ECCENTRICITY   = .00016056
INCLINATION    = 97.2799
RA_OF_ASC_NODE = 34.5630
ARG_OF_PERICENTER = 115.7674
MEAN_ANOMALY   = 69.4556

EPHEMERIS_TYPE = 0
CLASSIFICATION_TYPE = U
NORAD_CAT_ID   = 68121
ELEMENT_SET_NO = 999
REV_AT_EPOCH   = 224
BSTAR          = -.33131124E-2
MEAN_MOTION_DOT = -.1805309E-1
MEAN_MOTION_DDOT = .99793452E-3

CCSDS_OMM_VERS = 2.0
CREATION_DATE  = 
ORIGINATOR     = 

OBJECT_NAME    = STARLINK-36366
OBJECT_ID      = 2026-044X
CENTER_NAME    = EARTH
REF_FRAME      = TEME
TIME_SYSTEM    = UTC
MEAN_ELEMENT_THEORY = SGP/SGP4

EPOCH          = 2026-03-15T06:00:00.999648
MEAN_MOTION    = 16.01558765
ECCENTRICITY   = .00015772
INCLINATION    = 97.2798
RA_OF_ASC_NODE = 34.5636
ARG_OF_PERICENTER = 115.9625
MEAN_ANOMALY   = 71.2490

EPHEMERIS_TYPE = 0
CLASSIFICATION_TYPE = U
NORAD_CAT_ID   = 68122
ELEMENT_SET_NO = 999
REV_AT_EPOCH   = 229
BSTAR          = -.32572692E-2
MEAN_MOTION_DOT = -.1787473E-1
MEAN_MOTION_DDOT = .98084022E-3

CCSDS_OMM_VERS = 2.0
CREATION_DATE  = 
ORIGINATOR     = 

OBJECT_NAME    = STARLINK-36922
OBJECT_ID      = 2026-044Y
CENTER_NAME    = EARTH
REF_FRAME      = TEME
TIME_SYSTEM    = UTC
MEAN_ELEMENT_THEORY = SGP/SGP4

EPOCH          = 2026-03-15T06:00:00.999648
MEAN_MOTION    = 16.01840765
ECCENTRICITY   = .00016224
INCLINATION    = 97.2798
RA_OF_ASC_NODE = 34.5660
ARG_OF_PERICENTER = 114.8703
MEAN_ANOMALY   = 76.6639

EPHEMERIS_TYPE = 0
CLASSIFICATION_TYPE = U
NORAD_CAT_ID   = 68123
ELEMENT_SET_NO = 999
REV_AT_EPOCH   = 229
BSTAR          = -.32301428E-2
MEAN_MOTION_DOT = -.1801532E-1
MEAN_MOTION_DDOT = .99877967E-3

CCSDS_OMM_VERS = 2.0
CREATION_DATE  = 
ORIGINATOR     = 

OBJECT_NAME    = STARLINK-36938
OBJECT_ID      = 2026-044Z
CENTER_NAME    = EARTH
REF_FRAME      = TEME
TIME_SYSTEM    = UTC
MEAN_ELEMENT_THEORY = SGP/SGP4

EPOCH          = 2026-03-15T06:00:00.999648
MEAN_MOTION    = 16.01965872
ECCENTRICITY   = .00015564
INCLINATION    = 97.2797
RA_OF_ASC_NODE = 34.5668
ARG_OF_PERICENTER = 117.7987
MEAN_ANOMALY   = 75.6768

EPHEMERIS_TYPE = 0
CLASSIFICATION_TYPE = U
NORAD_CAT_ID   = 68124
ELEMENT_SET_NO = 999
REV_AT_EPOCH   = 229
BSTAR          = -.32004222E-2
MEAN_MOTION_DOT = -.1797947E-1
MEAN_MOTION_DDOT = .99652282E-3

CCSDS_OMM_VERS = 2.0
CREATION_DATE  = 
ORIGINATOR     = 

OBJECT_NAME    = STARLINK-36839
OBJECT_ID      = 2026-044AA
CENTER_NAME    = EARTH
REF_FRAME      = TEME
TIME_SYSTEM    = UTC
MEAN_ELEMENT_THEORY = SGP/SGP4

EPOCH          = 2026-03-15T06:00:00.999648
MEAN_MOTION    = 16.01714585
ECCENTRICITY   = .00015742
INCLINATION    = 97.2801
RA_OF_ASC_NODE = 34.5648
ARG_OF_PERICENTER = 109.6050
MEAN_ANOMALY   = 80.0278

EPHEMERIS_TYPE = 0
CLASSIFICATION_TYPE = U
NORAD_CAT_ID   = 68125
ELEMENT_SET_NO = 999
REV_AT_EPOCH   = 224
BSTAR          = -.32591351E-2
MEAN_MOTION_DOT = -.1804446E-1
MEAN_MOTION_DDOT = .10003238E-2

CCSDS_OMM_VERS = 2.0
CREATION_DATE  = 
ORIGINATOR     = 

OBJECT_NAME    = ECHOSTAR 25
OBJECT_ID      = 2026-045A
CENTER_NAME    = EARTH
REF_FRAME      = TEME
TIME_SYSTEM    = UTC
MEAN_ELEMENT_THEORY = SGP/SGP4

EPOCH          = 2026-03-11T09:52:45.155136
MEAN_MOTION    = 3.74430284
ECCENTRICITY   = .62093977
INCLINATION    = 26.8991
RA_OF_ASC_NODE = 70.3993
ARG_OF_PERICENTER = 175.3735
MEAN_ANOMALY   = 195.5868

EPHEMERIS_TYPE = 0
CLASSIFICATION_TYPE = U
NORAD_CAT_ID   = 68126
ELEMENT_SET_NO = 999
REV_AT_EPOCH   = 5
BSTAR          = .64832912E-4
MEAN_MOTION_DOT = .389E-5
MEAN_MOTION_DDOT = 0

CCSDS_OMM_VERS = 2.0
CREATION_DATE  = 
ORIGINATOR     = 

OBJECT_NAME    = ICOR SV
OBJECT_ID      = 2026-046A
CENTER_NAME    = EARTH
REF_FRAME      = TEME
TIME_SYSTEM    = UTC
MEAN_ELEMENT_THEORY = SGP/SGP4

EPOCH          = 2026-03-13T21:49:43.816224
MEAN_MOTION    = 15.82606913
ECCENTRICITY   = .0140888
INCLINATION    = 123.0797
RA_OF_ASC_NODE = 224.1306
ARG_OF_PERICENTER = 188.2572
MEAN_ANOMALY   = 171.6170

EPHEMERIS_TYPE = 0
CLASSIFICATION_TYPE = U
NORAD_CAT_ID   = 68127
ELEMENT_SET_NO = 999
REV_AT_EPOCH   = 29
BSTAR          = .10434E-2
MEAN_MOTION_DOT = .482503E-2
MEAN_MOTION_DDOT = .92133E-4

